[{"OBJECT_NAME":"STARLINK-30322","OBJECT_ID":"2023-124H","EPOCH":"2026-03-09T16:52:47.664480","MEAN_MOTION":15.30188184,"ECCENTRICITY":0.0001278,"INCLINATION":53.1606,"RA_OF_ASC_NODE":207.0037,"ARG_OF_PERICENTER":66.9385,"MEAN_ANOMALY":293.1751,"EPHEMERIS_TYPE":0,"CLASSIFICATION_TYPE":"U","NORAD_CAT_ID":57670,"ELEMENT_SET_NO":999,"REV_AT_EPOCH":14356,"BSTAR":-9.648594e-6,"MEAN_MOTION_DOT":-6.45e-6,"MEAN_MOTION_DDOT":0},{"OBJECT_NAME":"COSMOS 1862","OBJECT_ID":"1987-055A","EPOCH":"2026-03-09T22:37:02.390592","MEAN_MOTION":15.30492139,"ECCENTRICITY":0.00097484,"INCLINATION":82.4856,"RA_OF_ASC_NODE":47.1862,"ARG_OF_PERICENTER":26.6325,"MEAN_ANOMALY":333.5414,"EPHEMERIS_TYPE":0,"CLASSIFICATION_TYPE":"U","NORAD_CAT_ID":18152,"ELEMENT_SET_NO":999,"REV_AT_EPOCH":8987,"BSTAR":0.00034125048,"MEAN_MOTION_DOT":0.00010107,"MEAN_MOTION_DDOT":0}]
